{
  "type": "FeatureCollection",
  "features": [
    {
      "type": "Feature",
      "properties": {
        "norad_id": 42988,
        "name": "SKYSAT-C10",
        "group": "resource",
        "lat": -26.47893984193628,
        "lon": 118.55039638357117,
        "alt_km": 478.4456288277079,
        "timestamp": "2025-12-09T23:33:23.506788+00:00",
        "meta_object_name": "SKYSAT-C10",
        "meta_object_id": "2017-068B",
        "meta_epoch": "2025-12-09T14:16:01.915104",
        "meta_mean_motion": 15.3195453,
        "meta_eccentricity": 0.00053023,
        "meta_inclination": 97.4261,
        "meta_ra_of_asc_node": 114.4372,
        "meta_arg_of_pericenter": 112.69,
        "meta_mean_anomaly": 247.4903,
        "meta_ephemeris_type": 0,
        "meta_classification_type": "U",
        "meta_norad_cat_id": 42988,
        "meta_element_set_no": 999,
        "meta_rev_at_epoch": 45331,
        "meta_bstar": 0.00049799357,
        "meta_mean_motion_dot": 0.00015306,
        "meta_mean_motion_ddot": 0,
        "tle_line1": "1 42988U 17068B   25343.59446661  .00015306  00000+0  49799-3 0  9996",
        "tle_line2": "2 42988  97.4261 114.4372 0005302 112.6900 247.4903 15.31954530453314"
      },
      "geometry": {
        "type": "Point",
        "coordinates": [
          118.55039638357117,
          -26.47893984193628
        ]
      }
    },
    {
      "type": "Feature",
      "properties": {
        "norad_id": 42989,
        "name": "SKYSAT-C9",
        "group": "resource",
        "lat": 37.9027830888638,
        "lon": -59.963361311775444,
        "alt_km": 450.2891932282473,
        "timestamp": "2025-12-09T23:33:23.506799+00:00",
        "meta_object_name": "SKYSAT-C9",
        "meta_object_id": "2017-068C",
        "meta_epoch": "2025-12-09T08:52:14.036160",
        "meta_mean_motion": 15.35916317,
        "meta_eccentricity": 0.00106932,
        "meta_inclination": 97.4191,
        "meta_ra_of_asc_node": 113.5973,
        "meta_arg_of_pericenter": 98.5106,
        "meta_mean_anomaly": 261.735,
        "meta_ephemeris_type": 0,
        "meta_classification_type": "U",
        "meta_norad_cat_id": 42989,
        "meta_element_set_no": 999,
        "meta_rev_at_epoch": 45356,
        "meta_bstar": 0.00052582386,
        "meta_mean_motion_dot": 0.00018356,
        "meta_mean_motion_ddot": 0,
        "tle_line1": "1 42989U 17068C   25343.36960690  .00018356  00000+0  52582-3 0  9997",
        "tle_line2": "2 42989  97.4191 113.5973 0010693  98.5106 261.7350 15.35916317453560"
      },
      "geometry": {
        "type": "Point",
        "coordinates": [
          -59.963361311775444,
          37.9027830888638
        ]
      }
    },
    {
      "type": "Feature",
      "properties": {
        "norad_id": 42990,
        "name": "SKYSAT-C8",
        "group": "resource",
        "lat": 36.21668914361959,
        "lon": -60.54722496846731,
        "alt_km": 465.94046585928754,
        "timestamp": "2025-12-09T23:33:23.506809+00:00",
        "meta_object_name": "SKYSAT-C8",
        "meta_object_id": "2017-068D",
        "meta_epoch": "2025-12-09T15:05:58.332768",
        "meta_mean_motion": 15.32810205,
        "meta_eccentricity": 0.00017927,
        "meta_inclination": 97.428,
        "meta_ra_of_asc_node": 113.6163,
        "meta_arg_of_pericenter": 2.1286,
        "meta_mean_anomaly": 357.9963,
        "meta_ephemeris_type": 0,
        "meta_classification_type": "U",
        "meta_norad_cat_id": 42990,
        "meta_element_set_no": 999,
        "meta_rev_at_epoch": 45323,
        "meta_bstar": 0.00049880451,
        "meta_mean_motion_dot": 0.00015743,
        "meta_mean_motion_ddot": 0,
        "tle_line1": "1 42990U 17068D   25343.62914737  .00015743  00000+0  49880-3 0  9993",
        "tle_line2": "2 42990  97.4280 113.6163 0001792   2.1286 357.9963 15.32810205453231"
      },
      "geometry": {
        "type": "Point",
        "coordinates": [
          -60.54722496846731,
          36.21668914361959
        ]
      }
    },
    {
      "type": "Feature",
      "properties": {
        "norad_id": 42991,
        "name": "SKYSAT-C7",
        "group": "resource",
        "lat": 4.399421275038369,
        "lon": 114.43816678374742,
        "alt_km": 469.09187827967617,
        "timestamp": "2025-12-09T23:33:23.506820+00:00",
        "meta_object_name": "SKYSAT-C7",
        "meta_object_id": "2017-068E",
        "meta_epoch": "2025-12-09T07:51:48.807072",
        "meta_mean_motion": 15.32208172,
        "meta_eccentricity": 0.0007776,
        "meta_inclination": 97.429,
        "meta_ra_of_asc_node": 114.3574,
        "meta_arg_of_pericenter": 67.8691,
        "meta_mean_anomaly": 292.3376,
        "meta_ephemeris_type": 0,
        "meta_classification_type": "U",
        "meta_norad_cat_id": 42991,
        "meta_element_set_no": 999,
        "meta_rev_at_epoch": 45325,
        "meta_bstar": 0.00049179,
        "meta_mean_motion_dot": 0.00015242,
        "meta_mean_motion_ddot": 0,
        "tle_line1": "1 42991U 17068E   25343.32764823  .00015242  00000+0  49179-3 0  9995",
        "tle_line2": "2 42991  97.4290 114.3574 0007776  67.8691 292.3376 15.32208172453259"
      },
      "geometry": {
        "type": "Point",
        "coordinates": [
          114.43816678374742,
          4.399421275038369
        ]
      }
    },
    {
      "type": "Feature",
      "properties": {
        "norad_id": 42992,
        "name": "SKYSAT-C6",
        "group": "resource",
        "lat": 49.479198390687884,
        "lon": -55.76058982673933,
        "alt_km": 464.4652426634393,
        "timestamp": "2025-12-09T23:33:23.506831+00:00",
        "meta_object_name": "SKYSAT-C6",
        "meta_object_id": "2017-068F",
        "meta_epoch": "2025-12-09T15:09:02.414016",
        "meta_mean_motion": 15.31385394,
        "meta_eccentricity": 0.00052326,
        "meta_inclination": 97.4322,
        "meta_ra_of_asc_node": 115.1031,
        "meta_arg_of_pericenter": 91.0715,
        "meta_mean_anomaly": 269.1126,
        "meta_ephemeris_type": 0,
        "meta_classification_type": "U",
        "meta_norad_cat_id": 42992,
        "meta_element_set_no": 999,
        "meta_rev_at_epoch": 45328,
        "meta_bstar": 0.00049368141,
        "meta_mean_motion_dot": 0.00014905,
        "meta_mean_motion_ddot": 0,
        "tle_line1": "1 42992U 17068F   25343.63127794  .00014905  00000+0  49368-3 0  9995",
        "tle_line2": "2 42992  97.4322 115.1031 0005232  91.0715 269.1126 15.31385394453283"
      },
      "geometry": {
        "type": "Point",
        "coordinates": [
          -55.76058982673933,
          49.479198390687884
        ]
      }
    },
    {
      "type": "Feature",
      "properties": {
        "norad_id": 43111,
        "name": "CARTOSAT-2F",
        "group": "resource",
        "lat": -2.9872890376983694,
        "lon": 42.05398578141154,
        "alt_km": 511.99405838600615,
        "timestamp": "2025-12-09T23:33:23.506842+00:00",
        "meta_object_name": "CARTOSAT-2F",
        "meta_object_id": "2018-004A",
        "meta_epoch": "2025-12-09T14:05:06.781056",
        "meta_mean_motion": 15.19226125,
        "meta_eccentricity": 6.818e-05,
        "meta_inclination": 97.4311,
        "meta_ra_of_asc_node": 41.2755,
        "meta_arg_of_pericenter": 139.9404,
        "meta_mean_anomaly": 220.1881,
        "meta_ephemeris_type": 0,
        "meta_classification_type": "U",
        "meta_norad_cat_id": 43111,
        "meta_element_set_no": 999,
        "meta_rev_at_epoch": 43854,
        "meta_bstar": 0.00042826228,
        "meta_mean_motion_dot": 8.957e-05,
        "meta_mean_motion_ddot": 0,
        "tle_line1": "1 43111U 18004A   25343.58688404  .00008957  00000+0  42826-3 0  9996",
        "tle_line2": "2 43111  97.4311  41.2755 0000681 139.9404 220.1881 15.19226125438546"
      },
      "geometry": {
        "type": "Point",
        "coordinates": [
          42.05398578141154,
          -2.9872890376983694
        ]
      }
    },
    {
      "type": "Feature",
      "properties": {
        "norad_id": 43259,
        "name": "GAOFEN-1 02",
        "group": "resource",
        "lat": -7.745385446400598,
        "lon": -139.33740135424512,
        "alt_km": 643.6231661024412,
        "timestamp": "2025-12-09T23:33:23.506852+00:00",
        "meta_object_name": "GAOFEN-1 02",
        "meta_object_id": "2018-031A",
        "meta_epoch": "2025-12-09T14:34:35.592960",
        "meta_mean_motion": 14.76471964,
        "meta_eccentricity": 0.00014255,
        "meta_inclination": 98.0805,
        "meta_ra_of_asc_node": 41.3955,
        "meta_arg_of_pericenter": 224.1182,
        "meta_mean_anomaly": 135.9914,
        "meta_ephemeris_type": 0,
        "meta_classification_type": "U",
        "meta_norad_cat_id": 43259,
        "meta_element_set_no": 999,
        "meta_rev_at_epoch": 41472,
        "meta_bstar": 0.00028578522,
        "meta_mean_motion_dot": 1.938e-05,
        "meta_mean_motion_ddot": 0,
        "tle_line1": "1 43259U 18031A   25343.60735640  .00001938  00000+0  28579-3 0  9998",
        "tle_line2": "2 43259  98.0805  41.3955 0001425 224.1182 135.9914 14.76471964414723"
      },
      "geometry": {
        "type": "Point",
        "coordinates": [
          -139.33740135424512,
          -7.745385446400598
        ]
      }
    }
  ]
}